{
"type": "FeatureCollection",
"name": "piotrkowska_buildings_raw",
"crs": { "type": "name", "properties": { "name": "urn:ogc:def:crs:OGC:1.3:CRS84" } },
"features": [
{ "type": "Feature", "properties": { "full_id": "w104189409", "osm_id": "104189409", "osm_type": "way", "building": "yes", "office": null, "name:uk": null, "name:ru": null, "government": null, "admin_level": null, "addr:postcode": null, "official_name": null, "building:material": null, "amenity": null, "comment": null, "wikipedia": "pl:Pałac Juliusza Heinzla w Łodzi", "wikidata": "Q4574151", "tourism": "attraction", "source:addr": "EMUiA (emuia.geoportal.gov.pl)", "name": "Pałac Juliusza Heinzla", "building:levels": "3", "addr:street": "Piotrkowska", "addr:housenumber": "104", "addr:housename": "Pałac Heinzla", "addr:city": "Łódź" }, "geometry": { "type": "MultiPolygon", "coordinates": [ [ [ [ 19.4577775, 51.7645487 ], [ 19.4578543, 51.7645554 ], [ 19.4578498, 51.7645777 ], [ 19.4578433, 51.7646096 ], [ 19.4578475, 51.7646101 ], [ 19.4578467, 51.7646126 ], [ 19.4578579, 51.7646181 ], [ 19.4578643, 51.7646239 ], [ 19.4578659, 51.7646246 ], [ 19.4578584, 51.7646565 ], [ 19.4578461, 51.7646651 ], [ 19.457835, 51.7646668 ], [ 19.4578341, 51.7646689 ], [ 19.4578308, 51.7646686 ], [ 19.4578262, 51.7646907 ], [ 19.4578122, 51.7647546 ], [ 19.4575221, 51.7647312 ], [ 19.4575623, 51.7645516 ], [ 19.4575673, 51.7645293 ], [ 19.4577775, 51.7645487 ] ] ] ] } },
{ "type": "Feature", "properties": { "full_id": "w104189415", "osm_id": "104189415", "osm_type": "way", "building": "public", "office": null, "name:uk": null, "name:ru": null, "government": null, "admin_level": null, "addr:postcode": null, "official_name": null, "building:material": null, "amenity": null, "comment": "construction line temporary", "wikipedia": null, "wikidata": null, "tourism": null, "source:addr": null, "name": "Rada Miejska", "building:levels": "4", "addr:street": null, "addr:housenumber": null, "addr:housename": null, "addr:city": null }, "geometry": { "type": "MultiPolygon", "coordinates": [ [ [ [ 19.4581568, 51.7644492 ], [ 19.4581695, 51.7643911 ], [ 19.4582485, 51.7643976 ], [ 19.4582612, 51.7643376 ], [ 19.458539, 51.7643607 ], [ 19.45878, 51.7643806 ], [ 19.4587782, 51.7643898 ], [ 19.458809, 51.7643928 ], [ 19.4588754, 51.7643991 ], [ 19.4588496, 51.7645088 ], [ 19.4587847, 51.7645034 ], [ 19.458754, 51.7645008 ], [ 19.4587496, 51.7645249 ], [ 19.4584348, 51.7644993 ], [ 19.4583368, 51.7644913 ], [ 19.4583417, 51.7644647 ], [ 19.4581568, 51.7644492 ] ] ] ] } },
{ "type": "Feature", "properties": { "full_id": "w104189420", "osm_id": "104189420", "osm_type": "way", "building": "yes", "office": null, "name:uk": null, "name:ru": null, "government": null, "admin_level": null, "addr:postcode": null, "official_name": "Rada Miejska w Łodzi - Urzad Miasta Łodzi", "building:material": "stone", "amenity": "public_building", "comment": "construction line temporary", "wikipedia": null, "wikidata": null, "tourism": null, "source:addr": null, "name": "Rada Miejska w Łodzi", "building:levels": "4", "addr:street": "Piotrkowska", "addr:housenumber": "106", "addr:housename": null, "addr:city": "Łódź" }, "geometry": { "type": "MultiPolygon", "coordinates": [ [ [ [ 19.4582485, 51.7643976 ], [ 19.4581695, 51.7643911 ], [ 19.4578174, 51.7643612 ], [ 19.4576086, 51.764346 ], [ 19.4576291, 51.764249 ], [ 19.4576293, 51.7642478 ], [ 19.4576496, 51.7641521 ], [ 19.4576548, 51.7641525 ], [ 19.4576551, 51.7641516 ], [ 19.4576566, 51.7641517 ], [ 19.458038, 51.7641831 ], [ 19.4582175, 51.7641982 ], [ 19.4582048, 51.764253 ], [ 19.458155, 51.7642494 ], [ 19.4581541, 51.7642534 ], [ 19.4581498, 51.7642554 ], [ 19.4581037, 51.7642518 ], [ 19.458101, 51.764249 ], [ 19.4581005, 51.7642436 ], [ 19.4579495, 51.7642309 ], [ 19.4579451, 51.7642285 ], [ 19.4579502, 51.764216 ], [ 19.4579256, 51.7642142 ], [ 19.4579023, 51.7642255 ], [ 19.4578953, 51.7642545 ], [ 19.4578931, 51.7642556 ], [ 19.4578892, 51.7642575 ], [ 19.4578377, 51.7642569 ], [ 19.4578352, 51.7642677 ], [ 19.4578247, 51.7643128 ], [ 19.4580818, 51.764331 ], [ 19.458083, 51.7643263 ], [ 19.45809, 51.7643255 ], [ 19.4581394, 51.7643268 ], [ 19.4582612, 51.7643376 ], [ 19.4582485, 51.7643976 ] ] ] ] } },
{ "type": "Feature", "properties": { "full_id": "w104189425", "osm_id": "104189425", "osm_type": "way", "building": "house", "office": null, "name:uk": null, "name:ru": null, "government": null, "admin_level": null, "addr:postcode": null, "official_name": null, "building:material": null, "amenity": null, "comment": null, "wikipedia": null, "wikidata": null, "tourism": null, "source:addr": null, "name": null, "building:levels": "4", "addr:street": "Piotrkowska", "addr:housenumber": "108", "addr:housename": null, "addr:city": "Łódź" }, "geometry": { "type": "MultiPolygon", "coordinates": [ [ [ [ 19.4576566, 51.7641517 ], [ 19.4576566, 51.76415 ], [ 19.4576542, 51.7641497 ], [ 19.4576704, 51.7640583 ], [ 19.4576705, 51.7640576 ], [ 19.4576915, 51.7639593 ], [ 19.457718, 51.7639608 ], [ 19.4579923, 51.7639845 ], [ 19.4581864, 51.7640021 ], [ 19.4581752, 51.7640521 ], [ 19.4581207, 51.7640477 ], [ 19.4581211, 51.7640532 ], [ 19.4581005, 51.7640515 ], [ 19.4579494, 51.7640394 ], [ 19.4579502, 51.7640371 ], [ 19.4579188, 51.7640191 ], [ 19.4578979, 51.7640309 ], [ 19.4578875, 51.7640772 ], [ 19.4578774, 51.7641218 ], [ 19.4578916, 51.7641345 ], [ 19.4579317, 51.7641216 ], [ 19.4579334, 51.7641119 ], [ 19.4580327, 51.7641197 ], [ 19.4580368, 51.7641033 ], [ 19.4580598, 51.7641052 ], [ 19.458038, 51.7641831 ], [ 19.4576566, 51.7641517 ] ] ] ] } },
{ "type": "Feature", "properties": { "full_id": "w104189446", "osm_id": "104189446", "osm_type": "way", "building": "yes", "office": null, "name:uk": null, "name:ru": null, "government": null, "admin_level": null, "addr:postcode": null, "official_name": null, "building:material": null, "amenity": null, "comment": "construction line temporary", "wikipedia": null, "wikidata": null, "tourism": null, "source:addr": null, "name": null, "building:levels": "2", "addr:street": null, "addr:housenumber": null, "addr:housename": null, "addr:city": null }, "geometry": { "type": "MultiPolygon", "coordinates": [ [ [ [ 19.4585591, 51.7641454 ], [ 19.4585465, 51.7642269 ], [ 19.458545, 51.7642267 ], [ 19.4583567, 51.7642096 ], [ 19.4582175, 51.7641982 ], [ 19.458038, 51.7641831 ], [ 19.4580598, 51.7641052 ], [ 19.4580598, 51.764102 ], [ 19.4580738, 51.7641032 ], [ 19.458161, 51.7641108 ], [ 19.4585591, 51.7641454 ] ] ] ] } },
{ "type": "Feature", "properties": { "full_id": "w104189454", "osm_id": "104189454", "osm_type": "way", "building": "residential", "office": null, "name:uk": null, "name:ru": null, "government": null, "admin_level": null, "addr:postcode": null, "official_name": null, "building:material": null, "amenity": null, "comment": null, "wikipedia": null, "wikidata": null, "tourism": null, "source:addr": null, "name": null, "building:levels": "4", "addr:street": "Piotrkowska", "addr:housenumber": "102b", "addr:housename": null, "addr:city": "Łódź" }, "geometry": { "type": "MultiPolygon", "coordinates": [ [ [ [ 19.4581257, 51.7647802 ], [ 19.4581136, 51.764841 ], [ 19.4583415, 51.7648593 ], [ 19.458346, 51.7648633 ], [ 19.458357, 51.7647979 ], [ 19.4581257, 51.7647802 ] ] ] ] } },
{ "type": "Feature", "properties": { "full_id": "w104189463", "osm_id": "104189463", "osm_type": "way", "building": "yes", "office": null, "name:uk": null, "name:ru": null, "government": null, "admin_level": null, "addr:postcode": null, "official_name": null, "building:material": null, "amenity": null, "comment": null, "wikipedia": null, "wikidata": null, "tourism": null, "source:addr": "EMUiA (emuia.geoportal.gov.pl)", "name": null, "building:levels": "4", "addr:street": "Piotrkowska", "addr:housenumber": "104", "addr:housename": null, "addr:city": "Łódź" }, "geometry": { "type": "MultiPolygon", "coordinates": [ [ [ [ 19.4587014, 51.7647552 ], [ 19.4586927, 51.7647922 ], [ 19.4586854, 51.7648238 ], [ 19.458357, 51.7647979 ], [ 19.4581257, 51.7647802 ], [ 19.4578122, 51.7647546 ], [ 19.4578262, 51.7646907 ], [ 19.4585147, 51.7647471 ], [ 19.4585166, 51.7647398 ], [ 19.4587014, 51.7647552 ] ] ] ] } },
{ "type": "Feature", "properties": { "full_id": "w106904619", "osm_id": "106904619", "osm_type": "way", "building": "public", "office": "government", "name:uk": "Лодзинське Воєводське Управління. Відділ у Справах Громадян та Іноземців. Паспортний відділ", "name:ru": "Управление Лодзинского воеводства. Отдел по делам граждан и иностранцев. Паспортный отдел", "government": "administrative", "admin_level": "4", "addr:postcode": "90-425", "official_name": null, "building:material": null, "amenity": null, "comment": null, "wikipedia": null, "wikidata": null, "tourism": null, "source:addr": "EMUiA (emuia.geoportal.gov.pl)", "name": "Łódzki Urząd Wojewódzki. Wydział Spraw Obywatelskich i Cudzoziemców. Oddział paszportowy.", "building:levels": "4", "addr:street": "Piotrkowska", "addr:housenumber": "103", "addr:housename": null, "addr:city": "Łódź" }, "geometry": { "type": "MultiPolygon", "coordinates": [ [ [ [ 19.4566826, 51.7648477 ], [ 19.4565944, 51.7648402 ], [ 19.4562532, 51.7648124 ], [ 19.456046, 51.7647959 ], [ 19.4560435, 51.7647957 ], [ 19.4560308, 51.7647947 ], [ 19.4557686, 51.7647731 ], [ 19.4557829, 51.7647168 ], [ 19.4558264, 51.7647214 ], [ 19.4558289, 51.764711 ], [ 19.4560594, 51.7647295 ], [ 19.4563157, 51.7647504 ], [ 19.4566997, 51.7647818 ], [ 19.4566974, 51.7647921 ], [ 19.4566952, 51.7647917 ], [ 19.4566826, 51.7648477 ] ] ] ] } },
{ "type": "Feature", "properties": { "full_id": "w106904621", "osm_id": "106904621", "osm_type": "way", "building": "apartments", "office": null, "name:uk": null, "name:ru": null, "government": null, "admin_level": null, "addr:postcode": null, "official_name": null, "building:material": null, "amenity": null, "comment": null, "wikipedia": null, "wikidata": null, "tourism": null, "source:addr": null, "name": null, "building:levels": "7", "addr:street": "Piotrkowska", "addr:housenumber": "103/105", "addr:housename": null, "addr:city": "Łódź" }, "geometry": { "type": "MultiPolygon", "coordinates": [ [ [ [ 19.4571706, 51.7646445 ], [ 19.457204, 51.764504 ], [ 19.4569443, 51.764482 ], [ 19.4569439, 51.7644863 ], [ 19.4570032, 51.7644928 ], [ 19.4569739, 51.7646269 ], [ 19.4568925, 51.7646196 ], [ 19.4568792, 51.7646763 ], [ 19.4569694, 51.7646858 ], [ 19.4569515, 51.7647591 ], [ 19.4569475, 51.7647753 ], [ 19.4569446, 51.7647873 ], [ 19.456925, 51.7648677 ], [ 19.4570988, 51.7648818 ], [ 19.457116, 51.7648831 ], [ 19.4571223, 51.7648571 ], [ 19.457116, 51.7648564 ], [ 19.4571191, 51.764843 ], [ 19.4571378, 51.7648365 ], [ 19.4571432, 51.7648146 ], [ 19.4571278, 51.7648049 ], [ 19.4571305, 51.7647924 ], [ 19.4571513, 51.7647003 ], [ 19.4571575, 51.7646999 ], [ 19.4571706, 51.7646445 ] ] ] ] } },
{ "type": "Feature", "properties": { "full_id": "w106904630", "osm_id": "106904630", "osm_type": "way", "building": "yes", "office": null, "name:uk": null, "name:ru": null, "government": null, "admin_level": null, "addr:postcode": null, "official_name": null, "building:material": null, "amenity": null, "comment": null, "wikipedia": null, "wikidata": null, "tourism": null, "source:addr": null, "name": null, "building:levels": "4", "addr:street": "Piotrkowska", "addr:housenumber": "109", "addr:housename": null, "addr:city": "Łódź" }, "geometry": { "type": "MultiPolygon", "coordinates": [ [ [ [ 19.4559963, 51.7641487 ], [ 19.4559843, 51.7642075 ], [ 19.4560429, 51.7642123 ], [ 19.4572491, 51.7643057 ], [ 19.4572778, 51.7641853 ], [ 19.457294, 51.7641174 ], [ 19.4560255, 51.7640119 ], [ 19.4560141, 51.7640677 ], [ 19.4560185, 51.7640681 ], [ 19.4569777, 51.7641464 ], [ 19.4569802, 51.7641382 ], [ 19.457029, 51.7641441 ], [ 19.4570376, 51.7641391 ], [ 19.4570526, 51.764151 ], [ 19.4570494, 51.7641645 ], [ 19.4570462, 51.7641776 ], [ 19.4570271, 51.7641765 ], [ 19.4570215, 51.7642164 ], [ 19.4570376, 51.7642168 ], [ 19.4570315, 51.7642395 ], [ 19.4570153, 51.764248 ], [ 19.4570029, 51.7642422 ], [ 19.4569572, 51.7642377 ], [ 19.4569579, 51.7642257 ], [ 19.4560023, 51.7641491 ], [ 19.4559963, 51.7641487 ] ] ] ] } },
{ "type": "Feature", "properties": { "full_id": "w106904635", "osm_id": "106904635", "osm_type": "way", "building": "apartments", "office": null, "name:uk": null, "name:ru": null, "government": null, "admin_level": null, "addr:postcode": null, "official_name": null, "building:material": null, "amenity": null, "comment": null, "wikipedia": null, "wikidata": null, "tourism": null, "source:addr": null, "name": null, "building:levels": "4", "addr:street": "Piotrkowska", "addr:housenumber": "107", "addr:housename": null, "addr:city": "Łódź" }, "geometry": { "type": "MultiPolygon", "coordinates": [ [ [ [ 19.4569136, 51.7644793 ], [ 19.4569443, 51.764482 ], [ 19.457204, 51.764504 ], [ 19.4572259, 51.7644075 ], [ 19.4572491, 51.7643057 ], [ 19.4560429, 51.7642123 ], [ 19.4560302, 51.7642618 ], [ 19.4560289, 51.7642669 ], [ 19.4560327, 51.7642702 ], [ 19.4560792, 51.7642744 ], [ 19.4560841, 51.7642718 ], [ 19.4560855, 51.7642667 ], [ 19.4564192, 51.7642953 ], [ 19.456418, 51.7643002 ], [ 19.4564222, 51.7643033 ], [ 19.4564663, 51.764307 ], [ 19.4564716, 51.7643047 ], [ 19.4564727, 51.7642999 ], [ 19.4566409, 51.7643137 ], [ 19.4569398, 51.7643392 ], [ 19.4569457, 51.7643362 ], [ 19.4569468, 51.7643297 ], [ 19.4570058, 51.7643346 ], [ 19.4570169, 51.764331 ], [ 19.4570253, 51.764345 ], [ 19.4570165, 51.7643885 ], [ 19.4570079, 51.7644314 ], [ 19.4569906, 51.764441 ], [ 19.456982, 51.7644367 ], [ 19.4569236, 51.7644321 ], [ 19.4569136, 51.7644793 ] ] ] ] } },
{ "type": "Feature", "properties": { "full_id": "w174631971", "osm_id": "174631971", "osm_type": "way", "building": "yes", "office": null, "name:uk": null, "name:ru": null, "government": null, "admin_level": null, "addr:postcode": null, "official_name": null, "building:material": null, "amenity": null, "comment": null, "wikipedia": null, "wikidata": null, "tourism": null, "source:addr": null, "name": null, "building:levels": "3", "addr:street": "Piotrkowska", "addr:housenumber": "102a", "addr:housename": null, "addr:city": "Łódź" }, "geometry": { "type": "MultiPolygon", "coordinates": [ [ [ [ 19.4581136, 51.764841 ], [ 19.4581071, 51.7648451 ], [ 19.4581011, 51.7648467 ], [ 19.4580942, 51.7648478 ], [ 19.4580877, 51.7648472 ], [ 19.4580822, 51.7648466 ], [ 19.4580768, 51.7648446 ], [ 19.4580715, 51.7648417 ], [ 19.4580682, 51.7648373 ], [ 19.4580653, 51.7648321 ], [ 19.4580589, 51.7648372 ], [ 19.4580491, 51.7648392 ], [ 19.4577347, 51.7648144 ], [ 19.4577341, 51.7648161 ], [ 19.457689, 51.7648119 ], [ 19.4576426, 51.764809 ], [ 19.4576398, 51.7648228 ], [ 19.4576566, 51.7648228 ], [ 19.457665, 51.7648296 ], [ 19.4576613, 51.764846 ], [ 19.4576503, 51.7648531 ], [ 19.4576337, 51.7648526 ], [ 19.457631, 51.7648643 ], [ 19.4576285, 51.7648751 ], [ 19.4574952, 51.7648637 ], [ 19.4574975, 51.7648521 ], [ 19.4575221, 51.7647312 ], [ 19.4578122, 51.7647546 ], [ 19.4581257, 51.7647802 ], [ 19.4581136, 51.764841 ] ] ] ] } },
{ "type": "Feature", "properties": { "full_id": "w174631972", "osm_id": "174631972", "osm_type": "way", "building": "office", "office": null, "name:uk": null, "name:ru": null, "government": null, "admin_level": null, "addr:postcode": null, "official_name": null, "building:material": null, "amenity": null, "comment": null, "wikipedia": null, "wikidata": null, "tourism": null, "source:addr": "EMUiA (emuia.geoportal.gov.pl)", "name": null, "building:levels": "4", "addr:street": "Plac Komuny Paryskiej", "addr:housenumber": "11/13", "addr:housename": null, "addr:city": "Łódź" }, "geometry": { "type": "MultiPolygon", "coordinates": [ [ [ [ 19.458346, 51.7648633 ], [ 19.458357, 51.7647979 ], [ 19.4586854, 51.7648238 ], [ 19.4586715, 51.7648864 ], [ 19.4586633, 51.7648905 ], [ 19.4583473, 51.7648657 ], [ 19.458346, 51.7648633 ] ] ] ] } },
{ "type": "Feature", "properties": { "full_id": "w174632806", "osm_id": "174632806", "osm_type": "way", "building": "house", "office": null, "name:uk": null, "name:ru": null, "government": null, "admin_level": null, "addr:postcode": "90-001", "official_name": null, "building:material": null, "amenity": null, "comment": null, "wikipedia": null, "wikidata": null, "tourism": null, "source:addr": null, "name": null, "building:levels": "2", "addr:street": "Piotrkowska", "addr:housenumber": "104a", "addr:housename": null, "addr:city": null }, "geometry": { "type": "MultiPolygon", "coordinates": [ [ [ [ 19.4575673, 51.7645293 ], [ 19.4576086, 51.764346 ], [ 19.4578174, 51.7643612 ], [ 19.4578051, 51.7644214 ], [ 19.4578044, 51.7644232 ], [ 19.4577162, 51.7644171 ], [ 19.4577133, 51.764439 ], [ 19.4577306, 51.7644404 ], [ 19.4577455, 51.7644461 ], [ 19.4577513, 51.7644565 ], [ 19.4577448, 51.764483 ], [ 19.457791, 51.7644868 ], [ 19.4577775, 51.7645487 ], [ 19.4575673, 51.7645293 ] ] ] ] } },
{ "type": "Feature", "properties": { "full_id": "w174632807", "osm_id": "174632807", "osm_type": "way", "building": "yes", "office": null, "name:uk": null, "name:ru": null, "government": null, "admin_level": null, "addr:postcode": null, "official_name": null, "building:material": null, "amenity": null, "comment": null, "wikipedia": null, "wikidata": null, "tourism": null, "source:addr": null, "name": null, "building:levels": "3", "addr:street": null, "addr:housenumber": null, "addr:housename": null, "addr:city": null }, "geometry": { "type": "MultiPolygon", "coordinates": [ [ [ [ 19.4578051, 51.7644214 ], [ 19.457966, 51.7644339 ], [ 19.4579663, 51.7644355 ], [ 19.4580254, 51.7644406 ], [ 19.4580259, 51.7644388 ], [ 19.4581568, 51.7644492 ], [ 19.4581695, 51.7643911 ], [ 19.4578174, 51.7643612 ], [ 19.4578051, 51.7644214 ] ] ] ] } },
{ "type": "Feature", "properties": { "full_id": "w179149494", "osm_id": "179149494", "osm_type": "way", "building": "apartments", "office": null, "name:uk": null, "name:ru": null, "government": null, "admin_level": null, "addr:postcode": null, "official_name": null, "building:material": null, "amenity": null, "comment": null, "wikipedia": null, "wikidata": null, "tourism": null, "source:addr": null, "name": null, "building:levels": "4", "addr:street": null, "addr:housenumber": null, "addr:housename": null, "addr:city": null }, "geometry": { "type": "MultiPolygon", "coordinates": [ [ [ [ 19.4569136, 51.7644793 ], [ 19.4566564, 51.7644572 ], [ 19.4566109, 51.7644533 ], [ 19.4566238, 51.7643962 ], [ 19.4568133, 51.7644125 ], [ 19.4568139, 51.7644099 ], [ 19.4568447, 51.7644122 ], [ 19.456844, 51.7644148 ], [ 19.4569217, 51.7644213 ], [ 19.456925, 51.7644247 ], [ 19.4569236, 51.7644321 ], [ 19.4569136, 51.7644793 ] ] ] ] } },
{ "type": "Feature", "properties": { "full_id": "w179149498", "osm_id": "179149498", "osm_type": "way", "building": "apartments", "office": null, "name:uk": null, "name:ru": null, "government": null, "admin_level": null, "addr:postcode": null, "official_name": null, "building:material": null, "amenity": null, "comment": null, "wikipedia": null, "wikidata": null, "tourism": null, "source:addr": null, "name": null, "building:levels": "4", "addr:street": null, "addr:housenumber": null, "addr:housename": null, "addr:city": null }, "geometry": { "type": "MultiPolygon", "coordinates": [ [ [ [ 19.4566109, 51.7644533 ], [ 19.4560173, 51.7644026 ], [ 19.4560302, 51.7643447 ], [ 19.4560312, 51.7643402 ], [ 19.4560366, 51.7643368 ], [ 19.4560839, 51.7643412 ], [ 19.4560874, 51.7643444 ], [ 19.4560862, 51.7643491 ], [ 19.4564129, 51.7643777 ], [ 19.4564136, 51.7643725 ], [ 19.4564193, 51.7643695 ], [ 19.4564641, 51.7643739 ], [ 19.4564679, 51.7643773 ], [ 19.4564671, 51.7643826 ], [ 19.4566238, 51.7643962 ], [ 19.4566109, 51.7644533 ] ] ] ] } },
{ "type": "Feature", "properties": { "full_id": "w179149508", "osm_id": "179149508", "osm_type": "way", "building": "yes", "office": null, "name:uk": null, "name:ru": null, "government": null, "admin_level": null, "addr:postcode": null, "official_name": null, "building:material": null, "amenity": null, "comment": null, "wikipedia": null, "wikidata": null, "tourism": null, "source:addr": null, "name": null, "building:levels": null, "addr:street": null, "addr:housenumber": null, "addr:housename": null, "addr:city": null }, "geometry": { "type": "MultiPolygon", "coordinates": [ [ [ [ 19.4568056, 51.7648579 ], [ 19.4568211, 51.7647927 ], [ 19.4568248, 51.7647771 ], [ 19.4569446, 51.7647873 ], [ 19.456925, 51.7648677 ], [ 19.4568056, 51.7648579 ] ] ] ] } },
{ "type": "Feature", "properties": { "full_id": "w195160119", "osm_id": "195160119", "osm_type": "way", "building": "yes", "office": null, "name:uk": null, "name:ru": null, "government": null, "admin_level": null, "addr:postcode": null, "official_name": null, "building:material": null, "amenity": null, "comment": null, "wikipedia": null, "wikidata": null, "tourism": null, "source:addr": null, "name": null, "building:levels": "4", "addr:street": null, "addr:housenumber": null, "addr:housename": null, "addr:city": null }, "geometry": { "type": "MultiPolygon", "coordinates": [ [ [ [ 19.4587776, 51.7648313 ], [ 19.4587388, 51.7648283 ], [ 19.4587187, 51.7648267 ], [ 19.4586854, 51.7648238 ], [ 19.4586927, 51.7647922 ], [ 19.4587836, 51.7648003 ], [ 19.4587776, 51.7648313 ] ] ] ] } },
{ "type": "Feature", "properties": { "full_id": "w195160120", "osm_id": "195160120", "osm_type": "way", "building": "yes", "office": null, "name:uk": null, "name:ru": null, "government": null, "admin_level": null, "addr:postcode": null, "official_name": null, "building:material": null, "amenity": "public_building", "comment": null, "wikipedia": null, "wikidata": null, "tourism": null, "source:addr": "EMUiA (emuia.geoportal.gov.pl)", "name": "Urząd Miasta Łodzi i Łódzki Urząd Wojewódzki", "building:levels": "5", "addr:street": "Plac Komuny Paryskiej", "addr:housenumber": "5", "addr:housename": null, "addr:city": "Łódź" }, "geometry": { "type": "MultiPolygon", "coordinates": [ [ [ [ 19.4590051, 51.7648459 ], [ 19.45904, 51.7646764 ], [ 19.4590549, 51.7646222 ], [ 19.4590618, 51.7645924 ], [ 19.4590893, 51.7644725 ], [ 19.4591045, 51.7644741 ], [ 19.4591342, 51.7643446 ], [ 19.4597082, 51.764394 ], [ 19.4597408, 51.7642396 ], [ 19.4596836, 51.7642362 ], [ 19.4590563, 51.7641846 ], [ 19.4590649, 51.764149 ], [ 19.4590726, 51.7641168 ], [ 19.4591002, 51.7639845 ], [ 19.4589416, 51.7639704 ], [ 19.4589409, 51.7639793 ], [ 19.4589215, 51.7640611 ], [ 19.4589144, 51.7640611 ], [ 19.4589098, 51.7640844 ], [ 19.4589502, 51.7640874 ], [ 19.4589422, 51.764121 ], [ 19.458938, 51.7641384 ], [ 19.4588754, 51.7643991 ], [ 19.4588496, 51.7645088 ], [ 19.4588351, 51.7645733 ], [ 19.4588284, 51.7646032 ], [ 19.4588162, 51.7646568 ], [ 19.4587836, 51.7648003 ], [ 19.4587776, 51.7648313 ], [ 19.4587498, 51.7649663 ], [ 19.4595687, 51.7650376 ], [ 19.4595983, 51.7648942 ], [ 19.4590051, 51.7648459 ] ] ] ] } },
{ "type": "Feature", "properties": { "full_id": "w195201656", "osm_id": "195201656", "osm_type": "way", "building": "yes", "office": null, "name:uk": null, "name:ru": null, "government": null, "admin_level": null, "addr:postcode": null, "official_name": null, "building:material": null, "amenity": null, "comment": null, "wikipedia": null, "wikidata": null, "tourism": null, "source:addr": null, "name": null, "building:levels": "2", "addr:street": null, "addr:housenumber": null, "addr:housename": null, "addr:city": null }, "geometry": { "type": "MultiPolygon", "coordinates": [ [ [ [ 19.4583439, 51.764263 ], [ 19.4582048, 51.764253 ], [ 19.4582175, 51.7641982 ], [ 19.4583567, 51.7642096 ], [ 19.4583439, 51.764263 ] ] ] ] } },
{ "type": "Feature", "properties": { "full_id": "w195201657", "osm_id": "195201657", "osm_type": "way", "building": "yes", "office": null, "name:uk": null, "name:ru": null, "government": null, "admin_level": null, "addr:postcode": null, "official_name": null, "building:material": null, "amenity": null, "comment": null, "wikipedia": null, "wikidata": null, "tourism": null, "source:addr": null, "name": null, "building:levels": "1", "addr:street": null, "addr:housenumber": null, "addr:housename": null, "addr:city": null }, "geometry": { "type": "MultiPolygon", "coordinates": [ [ [ [ 19.4585387, 51.7642538 ], [ 19.4585327, 51.7642796 ], [ 19.4583439, 51.764263 ], [ 19.4583567, 51.7642096 ], [ 19.458545, 51.7642267 ], [ 19.4585387, 51.7642538 ] ] ] ] } }
]
}
