{
"type": "FeatureCollection",
"name": "osm_buildings_raw",
"crs": { "type": "name", "properties": { "name": "urn:ogc:def:crs:OGC:1.3:CRS84" } },
"features": [
{ "type": "Feature", "properties": { "full_id": "r5510316", "osm_id": "5510316", "osm_type": "relation", "building": "university", "wikipedia": null, "wikidata": null, "postal_code": null, "old_name": null, "name_1": null, "source:geometry": null, "source:building": null, "operator": null, "type": "multipolygon", "source:addr": "EMUiA (emuia.geoportal.gov.pl)", "roof:shape": "flat", "roof:levels": "0", "name": "B7 Wydział Budownictwa i Architektury i Inżynierii Środowiska Politechniki Łódzkiej", "building:levels": "4", "addr:street": "Aleje Politechniki", "addr:housenumber": "6", "addr:housename": "B7", "addr:city": "Łódź" }, "geometry": { "type": "MultiPolygon", "coordinates": [ [ [ [ 19.451387, 51.7477467 ], [ 19.4512544, 51.7477352 ], [ 19.4512917, 51.7475704 ], [ 19.4513377, 51.7473661 ], [ 19.4514704, 51.7473776 ], [ 19.4514963, 51.7472628 ], [ 19.4525715, 51.7473563 ], [ 19.4525443, 51.7474772 ], [ 19.4527356, 51.7474938 ], [ 19.4526554, 51.7478496 ], [ 19.4524598, 51.7478326 ], [ 19.4524329, 51.7479517 ], [ 19.4513617, 51.7478585 ], [ 19.451387, 51.7477467 ] ], [ [ 19.4520627, 51.7477981 ], [ 19.4520902, 51.747676 ], [ 19.4521033, 51.7476183 ], [ 19.4521422, 51.7474458 ], [ 19.4524154, 51.7474696 ], [ 19.4523778, 51.7476363 ], [ 19.4523639, 51.7476979 ], [ 19.452336, 51.7478218 ], [ 19.4520627, 51.7477981 ] ], [ [ 19.4514916, 51.7477484 ], [ 19.4515183, 51.74763 ], [ 19.4515255, 51.747598 ], [ 19.4515325, 51.747567 ], [ 19.4515711, 51.7473962 ], [ 19.4519432, 51.7474285 ], [ 19.4519046, 51.7475997 ], [ 19.4518963, 51.7476363 ], [ 19.4518911, 51.7476595 ], [ 19.4518637, 51.7477808 ], [ 19.4514916, 51.7477484 ] ] ] ] } },
{ "type": "Feature", "properties": { "full_id": "w100815172", "osm_id": "100815172", "osm_type": "way", "building": "university", "wikipedia": null, "wikidata": null, "postal_code": null, "old_name": null, "name_1": null, "source:geometry": null, "source:building": null, "operator": "Politechnika Łódzka", "type": null, "source:addr": null, "roof:shape": null, "roof:levels": null, "name": "B10 Wydział Inżynierii Procesowej i Ochrony Środowiska", "building:levels": "4", "addr:street": "Wólczańska", "addr:housenumber": "215A", "addr:housename": "B10", "addr:city": "Łódź" }, "geometry": { "type": "MultiPolygon", "coordinates": [ [ [ [ 19.4557233, 51.7472673 ], [ 19.4551012, 51.7472146 ], [ 19.4550735, 51.7473606 ], [ 19.4553832, 51.7473856 ], [ 19.4556852, 51.7474129 ], [ 19.4557233, 51.7472673 ] ] ] ] } },
{ "type": "Feature", "properties": { "full_id": "w174858704", "osm_id": "174858704", "osm_type": "way", "building": "university", "wikipedia": null, "wikidata": null, "postal_code": null, "old_name": null, "name_1": null, "source:geometry": "EGiB", "source:building": "BDOT", "operator": null, "type": null, "source:addr": null, "roof:shape": "many", "roof:levels": "1", "name": "Wydział Inżynierii Procesowej i Ochrony Środowiska", "building:levels": "3", "addr:street": "Wólczańska", "addr:housenumber": "213", "addr:housename": "B4", "addr:city": "Łódź" }, "geometry": { "type": "MultiPolygon", "coordinates": [ [ [ [ 19.45556, 51.747966 ], [ 19.4555037, 51.747962 ], [ 19.455479, 51.7480787 ], [ 19.4552676, 51.7480616 ], [ 19.4553116, 51.7478529 ], [ 19.4553855, 51.7478588 ], [ 19.4555231, 51.7478701 ], [ 19.4555075, 51.747944 ], [ 19.455564, 51.747949 ], [ 19.455574, 51.747891 ], [ 19.455655, 51.747898 ], [ 19.455654, 51.747902 ], [ 19.455675, 51.747904 ], [ 19.455677, 51.747884 ], [ 19.455745, 51.74789 ], [ 19.455741, 51.747911 ], [ 19.455774, 51.747911 ], [ 19.455774, 51.747918 ], [ 19.456004, 51.747938 ], [ 19.45599, 51.747988 ], [ 19.456009, 51.74799 ], [ 19.455992, 51.748071 ], [ 19.455973, 51.748069 ], [ 19.455962, 51.74812 ], [ 19.455936, 51.748118 ], [ 19.455932, 51.748145 ], [ 19.455832, 51.748136 ], [ 19.455833, 51.748131 ], [ 19.455777, 51.748127 ], [ 19.455777, 51.748126 ], [ 19.455686, 51.748119 ], [ 19.455692, 51.748098 ], [ 19.455688, 51.748097 ], [ 19.455703, 51.74803 ], [ 19.455666, 51.748026 ], [ 19.455676, 51.747985 ], [ 19.455556, 51.747975 ], [ 19.45556, 51.747966 ] ] ] ] } },
{ "type": "Feature", "properties": { "full_id": "w370532020", "osm_id": "370532020", "osm_type": "way", "building": "university", "wikipedia": null, "wikidata": null, "postal_code": null, "old_name": null, "name_1": null, "source:geometry": null, "source:building": null, "operator": null, "type": null, "source:addr": "EMUiA (emuia.geoportal.gov.pl)", "roof:shape": "flat", "roof:levels": null, "name": "B6 Instytut Architektury i Urbanistyki Politechniki Łódzkiej", "building:levels": "8", "addr:street": "Aleje Politechniki", "addr:housenumber": "6", "addr:housename": "B6", "addr:city": "Łódź" }, "geometry": { "type": "MultiPolygon", "coordinates": [ [ [ [ 19.4528714, 51.7478703 ], [ 19.4529036, 51.7477245 ], [ 19.4529505, 51.747512 ], [ 19.4530733, 51.7475224 ], [ 19.4532001, 51.7475332 ], [ 19.4531532, 51.7477413 ], [ 19.453121, 51.7478915 ], [ 19.4528714, 51.7478703 ] ] ] ] } },
{ "type": "Feature", "properties": { "full_id": "w370966221", "osm_id": "370966221", "osm_type": "way", "building": "university", "wikipedia": "pl:Fabryka Schweikerta", "wikidata": "Q9257585", "postal_code": "93-590", "old_name": "Fabryka Fryderyka Schweikerta", "name_1": "Lodex", "source:geometry": null, "source:building": null, "operator": null, "type": null, "source:addr": null, "roof:shape": "mansard", "roof:levels": null, "name": "B9 Budynek Trzech Wydziałów „Lodex”", "building:levels": "4", "addr:street": "Aleje Politechniki", "addr:housenumber": "8", "addr:housename": "B9", "addr:city": "Łódź" }, "geometry": { "type": "MultiPolygon", "coordinates": [ [ [ [ 19.4537893, 51.7471353 ], [ 19.4533659, 51.7470991 ], [ 19.4527797, 51.7470493 ], [ 19.4527624, 51.7471276 ], [ 19.4527425, 51.7471259 ], [ 19.4527402, 51.7471363 ], [ 19.4527363, 51.7471537 ], [ 19.4527337, 51.7471652 ], [ 19.4527532, 51.7471669 ], [ 19.4527388, 51.747232 ], [ 19.452757, 51.7472336 ], [ 19.4527811, 51.7472356 ], [ 19.4528005, 51.7472373 ], [ 19.4528028, 51.7472269 ], [ 19.4536359, 51.7472941 ], [ 19.4536349, 51.7472981 ], [ 19.4537366, 51.7473065 ], [ 19.4537388, 51.747303 ], [ 19.4537802, 51.7473066 ], [ 19.4549, 51.7474057 ], [ 19.4549382, 51.7472334 ], [ 19.4544944, 51.7471955 ], [ 19.4538518, 51.7471407 ], [ 19.4537893, 51.7471353 ] ] ] ] } }
]
}
